[
    {
        "Altitude(m)": 567091.2118494908,
        "Argument of Periapsis(deg)": -0.03013754771062987,
        "Eccentricity": 0.0,
        "Inclination(deg)": 97.0,
        "Latitude(deg)": -4.175168077682115,
        "Longitude(deg)": 106.35254549990194,
        "Mean Anomaly(deg)": 184.0878910255833,
        "RAAN(deg)": 30.00792940482468,
        "Satellite Name": "Starlink Shell 3 1664",
        "Satellite Number": 1664,
        "Semi-Major Axis(m)": 6938478.169268562,
        "Time(s)": 760
    },
    {
        "Altitude(m)": 567202.7260750624,
        "Argument of Periapsis(deg)": -0.030534094391032898,
        "Eccentricity": 0.0,
        "Inclination(deg)": 97.0,
        "Latitude(deg)": -4.799377865473101,
        "Longitude(deg)": 106.23417074765823,
        "Mean Anomaly(deg)": 184.71336722328834,
        "RAAN(deg)": 30.00803373909869,
        "Satellite Name": "Starlink Shell 3 1664",
        "Satellite Number": 1664,
        "Semi-Major Axis(m)": 6938478.169268562,
        "Time(s)": 770
    },
    {
        "Altitude(m)": 567318.3969654238,
        "Argument of Periapsis(deg)": -0.030930641071435925,
        "Eccentricity": 0.0,
        "Inclination(deg)": 97.0,
        "Latitude(deg)": -5.423550013939838,
        "Longitude(deg)": 106.1156589452794,
        "Mean Anomaly(deg)": 185.33884342099344,
        "RAAN(deg)": 30.008138073372695,
        "Satellite Name": "Starlink Shell 3 1664",
        "Satellite Number": 1664,
        "Semi-Major Axis(m)": 6938478.169268562,
        "Time(s)": 780
    },
    {
        "Altitude(m)": 567438.1977033222,
        "Argument of Periapsis(deg)": -0.031327187751838945,
        "Eccentricity": 0.0,
        "Inclination(deg)": 97.0,
        "Latitude(deg)": -6.047681542274535,
        "Longitude(deg)": 105.99699200185275,
        "Mean Anomaly(deg)": 185.96431961869848,
        "RAAN(deg)": 30.008242407646705,
        "Satellite Name": "Starlink Shell 3 1664",
        "Satellite Number": 1664,
        "Semi-Major Axis(m)": 6938478.169268562,
        "Time(s)": 790
    },
    {
        "Altitude(m)": 567562.0994466826,
        "Argument of Periapsis(deg)": -0.031723734432241975,
        "Eccentricity": 0.0,
        "Inclination(deg)": 97.0,
        "Latitude(deg)": -6.671769471033164,
        "Longitude(deg)": 105.87815117639674,
        "Mean Anomaly(deg)": 186.5897958164035,
        "RAAN(deg)": 30.008346741920718,
        "Satellite Name": "Starlink Shell 3 1664",
        "Satellite Number": 1664,
        "Semi-Major Axis(m)": 6938478.169268562,
        "Time(s)": 800
    },
    {
        "Altitude(m)": 567690.0713399136,
        "Argument of Periapsis(deg)": -0.032120281112645,
        "Eccentricity": 0.0,
        "Inclination(deg)": 97.0,
        "Latitude(deg)": -7.29581082195289,
        "Longitude(deg)": 105.75911756413787,
        "Mean Anomaly(deg)": 187.21527201410854,
        "RAAN(deg)": 30.00845107619472,
        "Satellite Name": "Starlink Shell 3 1664",
        "Satellite Number": 1664,
        "Semi-Major Axis(m)": 6938478.169268562,
        "Time(s)": 810
    },
    {
        "Altitude(m)": 567822.0805262144,
        "Argument of Periapsis(deg)": -0.03251682779304802,
        "Eccentricity": 0.0,
        "Inclination(deg)": 97.0,
        "Latitude(deg)": -7.919802617742198,
        "Longitude(deg)": 105.63987258245868,
        "Mean Anomaly(deg)": 187.84074821181358,
        "RAAN(deg)": 30.008555410468734,
        "Satellite Name": "Starlink Shell 3 1664",
        "Satellite Number": 1664,
        "Semi-Major Axis(m)": 6938478.169268562,
        "Time(s)": 820
    },
    {
        "Altitude(m)": 567958.0921609171,
        "Argument of Periapsis(deg)": -0.032913374473451044,
        "Eccentricity": 0.0,
        "Inclination(deg)": 97.0,
        "Latitude(deg)": -8.543741881842292,
        "Longitude(deg)": 105.52039694360785,
        "Mean Anomaly(deg)": 188.46622440951865,
        "RAAN(deg)": 30.008659744742744,
        "Satellite Name": "Starlink Shell 3 1664",
        "Satellite Number": 1664,
        "Semi-Major Axis(m)": 6938478.169268562,
        "Time(s)": 830
    },
    {
        "Altitude(m)": 568098.0694258199,
        "Argument of Periapsis(deg)": -0.03330992115385407,
        "Eccentricity": 0.0,
        "Inclination(deg)": 97.0,
        "Latitude(deg)": -9.167625638156437,
        "Longitude(deg)": 105.40067113987696,
        "Mean Anomaly(deg)": 189.0917006072237,
        "RAAN(deg)": 30.00876407901675,
        "Satellite Name": "Starlink Shell 3 1664",
        "Satellite Number": 1664,
        "Semi-Major Axis(m)": 6938478.169268562,
        "Time(s)": 840
    },
    {
        "Altitude(m)": 568241.9735445034,
        "Argument of Periapsis(deg)": -0.0337064678342571,
        "Eccentricity": 0.0,
        "Inclination(deg)": 97.0,
        "Latitude(deg)": -9.791450910744402,
        "Longitude(deg)": 105.28067592833062,
        "Mean Anomaly(deg)": 189.71717680492873,
        "RAAN(deg)": 30.00886841329076,
        "Satellite Name": "Starlink Shell 3 1664",
        "Satellite Number": 1664,
        "Semi-Major Axis(m)": 6938478.169268562,
        "Time(s)": 850
    },
    {
        "Altitude(m)": 568389.7637986691,
        "Argument of Periapsis(deg)": -0.03410301451466012,
        "Eccentricity": 0.0,
        "Inclination(deg)": 97.0,
        "Latitude(deg)": -10.415214723477854,
        "Longitude(deg)": 105.16039113407734,
        "Mean Anomaly(deg)": 190.34265300263377,
        "RAAN(deg)": 30.00897274756477,
        "Satellite Name": "Starlink Shell 3 1664",
        "Satellite Number": 1664,
        "Semi-Major Axis(m)": 6938478.169268562,
        "Time(s)": 860
    },
    {
        "Altitude(m)": 568541.3975454236,
        "Argument of Periapsis(deg)": -0.034499561195063144,
        "Eccentricity": 0.0,
        "Inclination(deg)": 97.0,
        "Latitude(deg)": -11.03891409965504,
        "Longitude(deg)": 105.03979697446186,
        "Mean Anomaly(deg)": 190.9681292003388,
        "RAAN(deg)": 30.009077081838775,
        "Satellite Name": "Starlink Shell 3 1664",
        "Satellite Number": 1664,
        "Semi-Major Axis(m)": 6938478.169268562,
        "Time(s)": 870
    },
    {
        "Altitude(m)": 568696.8302355512,
        "Argument of Periapsis(deg)": -0.03489610787546617,
        "Eccentricity": 0.0,
        "Inclination(deg)": 97.0,
        "Latitude(deg)": -11.662546061570097,
        "Longitude(deg)": 104.91887286122186,
        "Mean Anomaly(deg)": 191.59360539804388,
        "RAAN(deg)": 30.009181416112785,
        "Satellite Name": "Starlink Shell 3 1664",
        "Satellite Number": 1664,
        "Semi-Major Axis(m)": 6938478.169268562,
        "Time(s)": 880
    },
    {
        "Altitude(m)": 568856.0154327267,
        "Argument of Periapsis(deg)": -0.0352926545558692,
        "Eccentricity": 0.0,
        "Inclination(deg)": 97.0,
        "Latitude(deg)": -12.286107630034266,
        "Longitude(deg)": 104.79759788298715,
        "Mean Anomaly(deg)": 192.21908159574892,
        "RAAN(deg)": 30.0092857503868,
        "Satellite Name": "Starlink Shell 3 1664",
        "Satellite Number": 1664,
        "Semi-Major Axis(m)": 6938478.169268562,
        "Time(s)": 890
    },
    {
        "Altitude(m)": 569018.9048336911,
        "Argument of Periapsis(deg)": -0.035689201236272214,
        "Eccentricity": 0.0,
        "Inclination(deg)": 97.0,
        "Latitude(deg)": -12.909595823844795,
        "Longitude(deg)": 104.67595128709958,
        "Mean Anomaly(deg)": 192.84455779345396,
        "RAAN(deg)": 30.0093900846608,
        "Satellite Name": "Starlink Shell 3 1664",
        "Satellite Number": 1664,
        "Semi-Major Axis(m)": 6938478.169268562,
        "Time(s)": 900
    },
    {
        "Altitude(m)": 569185.4482893437,
        "Argument of Periapsis(deg)": -0.036085747916675244,
        "Eccentricity": 0.0,
        "Inclination(deg)": 97.0,
        "Latitude(deg)": -13.533007659198505,
        "Longitude(deg)": 104.55391144782794,
        "Mean Anomaly(deg)": 193.470033991159,
        "RAAN(deg)": 30.009494418934814,
        "Satellite Name": "Starlink Shell 3 1664",
        "Satellite Number": 1664,
        "Semi-Major Axis(m)": 6938478.169268562,
        "Time(s)": 910
    },
    {
        "Altitude(m)": 569355.5938267681,
        "Argument of Periapsis(deg)": -0.03648229459707827,
        "Eccentricity": 0.0,
        "Inclination(deg)": 97.0,
        "Latitude(deg)": -14.156340149045347,
        "Longitude(deg)": 104.43145634666884,
        "Mean Anomaly(deg)": 194.09551018886404,
        "RAAN(deg)": 30.009598753208827,
        "Satellite Name": "Starlink Shell 3 1664",
        "Satellite Number": 1664,
        "Semi-Major Axis(m)": 6938478.169268562,
        "Time(s)": 920
    },
    {
        "Altitude(m)": 569529.2876721754,
        "Argument of Periapsis(deg)": -0.0368788412774813,
        "Eccentricity": 0.0,
        "Inclination(deg)": 97.0,
        "Latitude(deg)": -14.779590302378566,
        "Longitude(deg)": 104.30856405180045,
        "Mean Anomaly(deg)": 194.72098638656905,
        "RAAN(deg)": 30.00970308748283,
        "Satellite Name": "Starlink Shell 3 1664",
        "Satellite Number": 1664,
        "Semi-Major Axis(m)": 6938478.169268562,
        "Time(s)": 930
    },
    {
        "Altitude(m)": 569706.4742747153,
        "Argument of Periapsis(deg)": -0.037275387957884314,
        "Eccentricity": 0.0,
        "Inclination(deg)": 97.0,
        "Latitude(deg)": -15.402755123456123,
        "Longitude(deg)": 104.18521168375604,
        "Mean Anomaly(deg)": 195.3464625842741,
        "RAAN(deg)": 30.009807421756843,
        "Satellite Name": "Starlink Shell 3 1664",
        "Satellite Number": 1664,
        "Semi-Major Axis(m)": 6938478.169268562,
        "Time(s)": 940
    }
]